[{"OBJECT_NAME":"STARLINK-36692","OBJECT_ID":"2026-026Z","EPOCH":"2026-03-09T22:00:01.999584","MEAN_MOTION":15.49151009,"ECCENTRICITY":0.0001001,"INCLINATION":97.285,"RA_OF_ASC_NODE":123.5069,"ARG_OF_PERICENTER":84.7027,"MEAN_ANOMALY":141.487,"EPHEMERIS_TYPE":0,"CLASSIFICATION_TYPE":"U","NORAD_CAT_ID":67744,"ELEMENT_SET_NO":999,"REV_AT_EPOCH":535,"BSTAR":0.0011356985,"MEAN_MOTION_DOT":0.00062083,"MEAN_MOTION_DDOT":0},{"OBJECT_NAME":"COSMOS 1703","OBJECT_ID":"1985-108A","EPOCH":"2026-03-09T17:57:42.122880","MEAN_MOTION":15.50625975,"ECCENTRICITY":0.00059475,"INCLINATION":82.4603,"RA_OF_ASC_NODE":321.559,"ARG_OF_PERICENTER":16.4744,"MEAN_ANOMALY":343.6699,"EPHEMERIS_TYPE":0,"CLASSIFICATION_TYPE":"U","NORAD_CAT_ID":16262,"ELEMENT_SET_NO":999,"REV_AT_EPOCH":20203,"BSTAR":0.00045588511,"MEAN_MOTION_DOT":0.00026209,"MEAN_MOTION_DDOT":0}]
